NORAD_CAT_ID,OBJECT_NAME,OBJECT_TYPE,EPOCH,MEAN_MOTION,ECCENTRICITY,INCLINATION,RA_OF_ASC_NODE,ARG_OF_PERICENTER,MEAN_ANOMALY,BSTAR,MEAN_MOTION_DOT,MEAN_MOTION_DDOT,TLE_LINE0,TLE_LINE1,TLE_LINE2,SEMIMAJOR_AXIS,PERIOD,APOGEE,PERIGEE,DECAYED
51725.0,STARLINK-3522,PAYLOAD,2024-02-09 11:22:10,15.08868004,0.0001514,53.2171,137.3805,74.2238,285.8922,3.8094e-05,3.19e-06,0.0,0 STARLINK-3522,1 51725U 22016M   24040.47373060  .00000319  00000-0  38094-4 0  9992,2 51725  53.2171 137.3805 0001514  74.2238 285.8922 15.08868004109933,6917.795,95.436,540.707,538.612,0.0
51725.0,STARLINK-3522,PAYLOAD,2024-02-09 12:57:32,15.0887672,0.0001312,53.2167,137.0768,90.0941,270.0201,8.5694e-05,1.077e-05,0.0,0 STARLINK-3522,1 51725U 22016M   24040.53996009  .00001077  00000-0  85694-4 0  9993,2 51725  53.2167 137.0768 0001312  90.0941 270.0201 15.08876720108812,6917.768,95.435,540.541,538.726,0.0
51725.0,STARLINK-3522,PAYLOAD,2024-02-09 16:08:18,15.08877878,0.0001399,53.2168,136.4798,107.0967,253.0178,0.00014066,1.954e-05,0.0,0 STARLINK-3522,1 51725U 22016M   24040.67243450  .00001954  00000-0  14066-3 0  9991,2 51725  53.2168 136.4798 0001399 107.0967 253.0178 15.08877878109967,6917.765,95.435,540.597,538.662,0.0
51725.0,STARLINK-3522,PAYLOAD,2024-02-10 11:12:56,15.08854652,0.0002092,53.2169,132.9054,129.1852,230.9326,0.0001079,1.43e-05,0.0,0 STARLINK-3522,1 51725U 22016M   24041.46732385  .00001430  00000-0  10790-3 0  9998,2 51725  53.2169 132.9054 0002092 129.1852 230.9326 15.08854652110082,6917.836,95.437,541.148,538.253,0.0
51725.0,STARLINK-3522,PAYLOAD,2024-02-10 12:48:20,15.08852957,0.0001643,53.217,132.6189,109.3432,250.7738,8.0676e-05,9.97e-06,0.0,0 STARLINK-3522,1 51725U 22016M   24041.53356800  .00000997  00000-0  80676-4 0  9998,2 51725  53.2170 132.6189 0001643 109.3432 250.7738 15.08852957108962,6917.841,95.437,540.842,538.569,0.0
51725.0,STARLINK-3522,PAYLOAD,2024-02-10 15:59:06,15.08855026,0.0001632,53.2168,132.0182,110.3328,249.7839,0.00010104,1.321e-05,0.0,0 STARLINK-3522,1 51725U 22016M   24041.66604445  .00001321  00000-0  10104-3 0  9993,2 51725  53.2168 132.0182 0001632 110.3328 249.7839 15.08855026108982,6917.834,95.437,540.828,538.57,0.0
51725.0,STARLINK-3522,PAYLOAD,2024-02-11 11:03:45,15.08839988,0.0001948,53.2162,128.4413,125.5606,234.5568,-0.00028525,-4.825e-05,0.0,0 STARLINK-3522,1 51725U 22016M   24042.46094567 -.00004825  00000-0 -28525-3 0  9990,2 51725  53.2162 128.4413 0001948 125.5606 234.5568 15.08839988110230,6917.88,95.438,541.093,538.398,0.0
51725.0,STARLINK-3522,PAYLOAD,2024-02-12 10:54:32,15.08845469,0.0001985,53.2162,123.9928,108.0555,252.0653,0.00018688,2.688e-05,0.0,0 STARLINK-3522,1 51725U 22016M   24043.45453735  .00002688  00000-0  18688-3 0  9998,2 51725  53.2162 123.9928 0001985 108.0555 252.0653 15.08845469110388,6917.864,95.437,541.102,538.355,0.0
51725.0,STARLINK-3522,PAYLOAD,2024-02-13 04:23:47,15.08830512,0.0001651,53.2161,120.7268,92.1934,267.9247,0.00025152,3.716e-05,0.0,0 STARLINK-3522,1 51725U 22016M   24044.18318859  .00003716  00000-0  25152-3 0  9993,2 51725  53.2161 120.7268 0001651  92.1934 267.9247 15.08830512110492,6917.909,95.438,540.917,538.632,0.0
51725.0,STARLINK-3522,PAYLOAD,2024-02-13 12:20:43,15.08828675,0.0001637,53.2161,119.2376,72.3755,287.7416,2.8618e-05,1.67e-06,0.0,0 STARLINK-3522,1 51725U 22016M   24044.51439496  .00000167  00000-0  28618-4 0  9999,2 51725  53.2161 119.2376 0001637  72.3755 287.7416 15.08828675109415,6917.915,95.438,540.912,538.648,0.0
51725.0,STARLINK-3522,PAYLOAD,2024-02-13 21:53:02,15.08837461,0.000158,53.2162,117.4519,86.1026,274.0147,0.00013688,1.891e-05,0.0,0 STARLINK-3522,1 51725U 22016M   24044.91183258  .00001891  00000-0  13688-3 0  9990,2 51725  53.2162 117.4519 0001580  86.1026 274.0147 15.08837461109475,6917.888,95.438,540.846,538.66,0.0
51725.0,STARLINK-3522,PAYLOAD,2024-02-14 12:11:30,15.08844022,0.0001473,53.215,114.7731,86.334,273.782,0.00026418,3.919e-05,0.0,0 STARLINK-3522,1 51725U 22016M   24045.50799061  .00003919  00000-0  26418-3 0  9999,2 51725  53.2150 114.7731 0001473  86.3340 273.7820 15.08844022110691,6917.868,95.437,540.752,538.714,0.0
51725.0,STARLINK-3522,PAYLOAD,2024-02-14 21:43:49,15.08839227,0.0001472,53.2148,112.9907,93.6961,266.42,0.00025261,3.735e-05,0.0,0 STARLINK-3522,1 51725U 22016M   24045.90543512  .00003735  00000-0  25261-3 0  9992,2 51725  53.2148 112.9907 0001472  93.6961 266.4200 15.08839227109625,6917.883,95.438,540.766,538.729,0.0
51725.0,STARLINK-3522,PAYLOAD,2024-02-15 04:05:22,15.08836096,0.000152,53.2146,111.803,75.7111,284.4049,0.00022278,3.259e-05,0.0,0 STARLINK-3522,1 51725U 22016M   24046.17039861  .00003259  00000-0  22278-3 0  9995,2 51725  53.2146 111.8030 0001520  75.7111 284.4049 15.08836096110792,6917.892,95.438,540.809,538.706,0.0
51725.0,STARLINK-3522,PAYLOAD,2024-02-15 10:26:55,15.08834671,0.0001495,53.2152,110.6129,82.0744,278.0418,0.00018976,2.733e-05,0.0,0 STARLINK-3522,1 51725U 22016M   24046.43536000  .00002733  00000-0  18976-3 0  9997,2 51725  53.2152 110.6129 0001495  82.0744 278.0418 15.08834671109704,6917.897,95.438,540.796,538.727,0.0
51725.0,STARLINK-3522,PAYLOAD,2024-02-15 21:34:36,15.08844644,0.0001694,53.2162,108.5321,80.0915,280.0268,0.00020829,3.029e-05,0.0,0 STARLINK-3522,1 51725U 22016M   24046.89903623  .00003029  00000-0  20829-3 0  9995,2 51725  53.2162 108.5321 0001694  80.0915 280.0268 15.08844644109778,6917.866,95.437,540.903,538.559,0.0
51725.0,STARLINK-3522,PAYLOAD,2024-02-16 10:17:41,15.08850521,0.0001449,53.2144,106.1509,90.3025,269.8133,0.00029032,4.337e-05,0.0,0 STARLINK-3522,1 51725U 22016M   24047.42895134  .00004337  00000-0  29032-3 0  9990,2 51725  53.2144 106.1509 0001449  90.3025 269.8133 15.08850521110986,6917.848,95.437,540.716,538.711,0.0
51725.0,STARLINK-3522,PAYLOAD,2024-02-17 10:08:28,15.08839161,0.0001498,53.2163,101.6919,95.5148,264.6015,5.7907e-05,6.34e-06,0.0,0 STARLINK-3522,1 51725U 22016M   24048.42255787  .00000634  00000-0  57907-4 0  9994,2 51725  53.2163 101.6919 0001498  95.5148 264.6015 15.08839161111136,6917.883,95.438,540.784,538.712,0.0
51725.0,STARLINK-3522,PAYLOAD,2024-02-18 09:59:16,15.08844,0.0001412,53.2162,97.2335,96.5751,263.5402,0.00016267,2.302e-05,0.0,0 STARLINK-3522,1 51725U 22016M   24049.41615849  .00002302  00000-0  16267-3 0  9990,2 51725  53.2162  97.2335 0001412  96.5751 263.5402 15.08844000110151,6917.868,95.437,540.71,538.756,0.0
51725.0,STARLINK-3522,PAYLOAD,2024-02-18 19:31:34,15.08840769,0.0001449,53.2163,95.4488,98.5579,261.5578,0.00015809,2.229e-05,0.0,0 STARLINK-3522,1 51725U 22016M   24049.81359868  .00002229  00000-0  15809-3 0  9999,2 51725  53.2163  95.4488 0001449  98.5579 261.5578 15.08840769111343,6917.878,95.438,540.745,538.741,0.0
51725.0,STARLINK-3522,PAYLOAD,2024-02-19 09:50:03,15.08836766,0.0001669,53.2172,92.774,106.0434,254.0742,0.00048311,7.408e-05,0.0,0 STARLINK-3522,1 51725U 22016M   24050.40976499  .00007408  00000-0  48311-3 0  9999,2 51725  53.2172  92.7740 0001669 106.0434 254.0742 15.08836766111446,6917.89,95.438,540.91,538.601,0.0
51725.0,STARLINK-3522,PAYLOAD,2024-02-19 19:22:22,15.08840027,0.0001598,53.2169,90.989,102.9741,257.143,8.8985e-05,1.128e-05,0.0,0 STARLINK-3522,1 51725U 22016M   24050.80720210  .00001128  00000-0  88985-4 0  9996,2 51725  53.2169  90.9890 0001598 102.9741 257.1430 15.08840027110368,6917.88,95.438,540.851,538.64,0.0
51725.0,STARLINK-3522,PAYLOAD,2024-02-20 11:16:13,15.08845224,0.0001521,53.2168,88.0124,93.2689,266.8477,9.8827e-05,1.285e-05,0.0,0 STARLINK-3522,1 51725U 22016M   24051.46959875  .00001285  00000-0  98827-4 0  9990,2 51725  53.2168  88.0124 0001521  93.2689 266.8477 15.08845224111592,6917.864,95.437,540.782,538.677,0.0
51725.0,STARLINK-3522,PAYLOAD,2024-02-20 19:13:08,15.0884531,0.0001524,53.2168,86.5255,90.5441,269.5725,5.9415e-05,6.58e-06,0.0,0 STARLINK-3522,1 51725U 22016M   24051.80079813  .00000658  00000-0  59415-4 0  9996,2 51725  53.2168  86.5255 0001524  90.5441 269.5725 15.08845310110512,6917.864,95.437,540.783,538.675,0.0
51725.0,STARLINK-3522,PAYLOAD,2024-02-21 01:34:41,15.08839739,0.0001565,53.2172,85.3369,90.4295,269.6876,6.1942e-05,6.98e-06,0.0,0 STARLINK-3522,1 51725U 22016M   24052.06576117  .00000698  00000-0  61942-4 0  9996,2 51725  53.2172  85.3369 0001565  90.4295 269.6876 15.08839739111697,6917.881,95.438,540.829,538.664,0.0
51725.0,STARLINK-3522,PAYLOAD,2024-02-21 09:31:37,15.08841599,0.0001547,53.2176,83.8495,91.8397,268.2773,8.4281e-05,1.054e-05,0.0,0 STARLINK-3522,1 51725U 22016M   24052.39696264  .00001054  00000-0  84281-4 0  9996,2 51725  53.2176  83.8495 0001547  91.8397 268.2773 15.08841599110600,6917.876,95.437,540.811,538.67,0.0
51725.0,STARLINK-3522,PAYLOAD,2024-02-21 19:03:56,15.08838913,0.0001541,53.2176,82.0655,92.8513,267.2655,7.1217e-05,8.46e-06,0.0,0 STARLINK-3522,1 51725U 22016M   24052.79440408  .00000846  00000-0  71217-4 0  9990,2 51725  53.2176  82.0655 0001541  92.8513 267.2655 15.08838913110664,6917.884,95.438,540.815,538.683,0.0
51725.0,STARLINK-3522,PAYLOAD,2024-02-22 09:22:24,15.08840739,0.0001551,53.2171,79.3896,98.3644,261.7524,3.5522e-05,2.77e-06,0.0,0 STARLINK-3522,1 51725U 22016M   24053.39056366  .00000277  00000-0  35522-4 0  9990,2 51725  53.2171  79.3896 0001551  98.3644 261.7524 15.08840739111891,6917.878,95.438,540.816,538.67,0.0
51725.0,STARLINK-3522,PAYLOAD,2024-02-22 18:54:43,15.08842902,0.0001402,53.216,77.6028,91.7423,268.3729,-2.5267e-06,-3.28e-06,0.0,0 STARLINK-3522,1 51725U 22016M   24053.78800235 -.00000328  00000-0 -25267-5 0  9990,2 51725  53.2160  77.6028 0001402  91.7423 268.3729 15.08842902110819,6917.872,95.437,540.706,538.767,0.0
51725.0,STARLINK-3522,PAYLOAD,2024-02-23 07:37:48,15.08836292,0.0001161,53.2157,75.2237,90.6589,269.4537,0.00015324,2.152e-05,0.0,0 STARLINK-3522,1 51725U 22016M   24054.31792288  .00002152  00000-0  15324-3 0  9994,2 51725  53.2157  75.2237 0001161  90.6589 269.4537 15.08836292110896,6917.892,95.438,540.56,538.954,0.0
